ONEWEB-0020             
1 45133U 20008C   24209.15618865 -.00000517  00000+0 -15166-2 0  9998
2 45133  87.8960 173.5005 0001909  86.0286 274.1060 13.10371282217970
ONEWEB-0021             
1 45134U 20008D   24209.17112760 -.00000560  00000+0 -16404-2 0  9998
2 45134  87.8970 173.5149 0002115  76.7451 283.3912 13.10375400218280
ONEWEB-0023             
1 45136U 20008F   24209.25994088  .00000106  00000+0  26707-3 0  9992
2 45136  87.8970 173.4866 0002399  88.3858 271.7544 13.10376421217725
ONEWEB-0024             
1 45137U 20008G   24209.15453202 -.00000505  00000+0 -14832-2 0  9990
2 45137  87.8952 173.4912 0002006  80.0155 280.1199 13.10371108217875
ONEWEB-0025             
1 45138U 20008H   24209.17279100 -.00000376  00000+0 -11143-2 0  9994
2 45138  87.8958 173.4877 0002238  80.6778 279.4602 13.10375113218204
ONEWEB-0026             
1 45139U 20008J   24209.13055881 -.00000278  00000+0 -81931-3 0  9993
2 45139  87.8997 158.4177 0001941  82.9820 277.1528 13.11420228220661
ONEWEB-0028             
1 45140U 20008K   24209.23823158  .00000598  00000+0  16510-2 0  9999
2 45140  87.8990 158.4347 0002688  73.1319 287.0103 13.11418614218199
ONEWEB-0032             
1 45141U 20008L   24209.18774468  .00000363  00000+0  10030-2 0  9994
2 45141  87.8959 173.5314 0002165  78.5669 281.5702 13.10375350217937
